{
  "63572": {
    "noradId": "63572",
    "tle": [
      "1 63572C 25076D   26115.38104167  .00048157  00000+0  17445-2 0  1155",
      "2 63572  43.0041  58.3475 0001487 273.8848 219.8104 15.27550740    11"
    ]
  },
  "63573": {
    "noradId": "63573",
    "tle": [
      "1 63573C 25076E   26115.39979167  .00028766  00000+0  10421-2 0  1158",
      "2 63573  43.0038  58.2222 0001485 271.8498 332.1645 15.27556266    12"
    ]
  },
  "63575": {
    "noradId": "63575",
    "tle": [
      "1 63575C 25076G   26115.35812500  .00056133  00000+0  20337-2 0  1159",
      "2 63575  43.0019  58.2923 0001131 264.8890 180.4670 15.27542452    11"
    ]
  },
  "63576": {
    "noradId": "63576",
    "tle": [
      "1 63576C 25076H   26115.40534722  .00034588  00000+0  12530-2 0  1159",
      "2 63576  43.0013  57.6806 0001460 268.7575 218.0749 15.27555655    11"
    ]
  },
  "63577": {
    "noradId": "63577",
    "tle": [
      "1 63577C 25076J   26115.36229167  .00044968  00000+0  16291-2 0  1150",
      "2 63577  43.0036  58.3993 0001480 266.7517 144.9528 15.27549522    16"
    ]
  },
  "63578": {
    "noradId": "63578",
    "tle": [
      "1 63578C 25076K   26115.37826389  .00043114  00000+0  15620-2 0  1158",
      "2 63578  43.0000  57.9541 0001200 256.5276  31.6723 15.27548519    15"
    ]
  },
  "63579": {
    "noradId": "63579",
    "tle": [
      "1 63579C 25076L   26115.40326389  .00034109  00000+0  12358-2 0  1157",
      "2 63579  43.0000  57.7444 0001787 278.7290 140.1334 15.27550675    18"
    ]
  },
  "63580": {
    "noradId": "63580",
    "tle": [
      "1 63580C 25076M   26115.39979167  .00029492  00000+0  10684-2 0  1154",
      "2 63580  43.0010  58.0185 0001344 267.9010  61.0127 15.27556753    10"
    ]
  },
  "63581": {
    "noradId": "63581",
    "tle": [
      "1 63581C 25076N   26115.35465278  .00061922  00000+0  22434-2 0  1154",
      "2 63581  43.0012  57.9824 0001525 275.5099 285.1494 15.27538460    15"
    ]
  },
  "63582": {
    "noradId": "63582",
    "tle": [
      "1 63582C 25076P   26115.36368056  .00054305  00000+0  19657-2 0  1152",
      "2 63582  43.0021  57.8442 0001586 269.8940  15.8556 15.27571827    10"
    ]
  },
  "63583": {
    "noradId": "63583",
    "tle": [
      "1 63583C 25076Q   26115.40256944  .00033685  00000+0  12202-2 0  1157",
      "2 63583  43.0039  57.5386 0001458 270.7755 264.4402 15.27557358    12"
    ]
  },
  "63584": {
    "noradId": "63584",
    "tle": [
      "1 63584C 25076R   26115.36298611  .00053940  00000+0  19540-2 0  1158",
      "2 63584  43.0045  57.6588 0001481 270.0158  89.7206 15.27546695    13"
    ]
  },
  "63585": {
    "noradId": "63585",
    "tle": [
      "1 63585C 25076S   26115.38798611  .00045012  00000+0  16306-2 0  1154",
      "2 63585  43.0044  57.5357 0001425 270.0461 220.2531 15.27551455    14"
    ]
  },
  "63586": {
    "noradId": "63586",
    "tle": [
      "1 63586C 25076T   26115.35604167  .00056285  00000+0  20397-2 0  1153",
      "2 63586  43.0004  58.1755 0001512 274.1346 209.2911 15.27534294    15"
    ]
  },
  "63587": {
    "noradId": "63587",
    "tle": [
      "1 63587C 25076U   26115.39770833  .00033874  00000+0  12278-2 0  1150",
      "2 63587  43.0001  57.9046 0001408 277.8230  89.1824 15.27538643    19"
    ]
  },
  "63588": {
    "noradId": "63588",
    "tle": [
      "1 63588C 25076V   26115.40673611  .00031232  00000+0  11316-2 0  1157",
      "2 63588  43.0003  57.8715 0001407 272.9954 136.5967 15.27552486    18"
    ]
  },
  "63589": {
    "noradId": "63589",
    "tle": [
      "1 63589C 25076W   26115.35673611  .00044917  00000+0  16276-2 0  1156",
      "2 63589  43.0029  58.3787 0001477 269.8274 132.5234 15.27541799    17"
    ]
  },
  "63590": {
    "noradId": "63590",
    "tle": [
      "1 63590C 25076X   26115.40187500  .00028557  00000+0  10349-2 0  1158",
      "2 63590  43.0042  58.2452 0001419 277.3889 316.9171 15.27546452    13"
    ]
  },
  "63591": {
    "noradId": "63591",
    "tle": [
      "1 63591C 25076Y   26115.41090278  .00028223  00000+0  10224-2 0  1157",
      "2 63591  43.0023  57.5897 0001446 269.8108 268.8454 15.27559693    18"
    ]
  },
  "63592": {
    "noradId": "63592",
    "tle": [
      "1 63592C 25076Z   26115.36576389  .00054945  00000+0  19919-2 0  1154",
      "2 63592  43.0020  58.2558 0001493 274.1451 206.2622 15.27521746    11"
    ]
  },
  "63593": {
    "noradId": "63593",
    "tle": [
      "1 63593C 25076AA  26115.37062500  .00048915  00000+0  17718-2 0  1156",
      "2 63593  43.0012  57.9031 0001728 270.6991  10.8208 15.27552905    16"
    ]
  },
  "63594": {
    "noradId": "63594",
    "tle": [
      "1 63594C 25076AB  26115.41090278  .00024078  00000+0  87232-3 0  1158",
      "2 63594  43.0023  58.0336 0001443 274.3394  80.3739 15.27557994    15"
    ]
  },
  "63595": {
    "noradId": "63595",
    "tle": [
      "1 63595C 25076AC  26115.36854167  .00048572  00000+0  17595-2 0  1157",
      "2 63595  43.0000  57.9053 0001465 273.5076 335.3805 15.27550252    14"
    ]
  },
  "63634": {
    "noradId": "63634",
    "tle": [
      "1 63634C 25083A   26115.41784722  .00047878  00000+0  17344-2 0  1154",
      "2 63634  42.9998 101.6625 0001485 273.5078 290.5378 15.27549632    15"
    ]
  },
  "63635": {
    "noradId": "63635",
    "tle": [
      "1 63635C 25083B   26115.38798611  .00029905  00000+0  10836-2 0  1153",
      "2 63635  43.0017 101.2803 0001328 276.9045 356.1982 15.27551102    16"
    ]
  },
  "63636": {
    "noradId": "63636",
    "tle": [
      "1 63636C 25083C   26115.37895833  .00022145  00000+0  80243-3 0  1156",
      "2 63636  42.9994 101.9342 0001267 271.3262  57.3907 15.27553212    17"
    ]
  },
  "63637": {
    "noradId": "63637",
    "tle": [
      "1 63637C 25083D   26115.38312500  .00051451  00000+0  18641-2 0  1157",
      "2 63637  43.0009 101.2036 0001360 273.9336  14.8610 15.27544111    11"
    ]
  },
  "63638": {
    "noradId": "63638",
    "tle": [
      "1 63638C 25083E   26115.37548611  .00029631  00000+0  10735-2 0  1152",
      "2 63638  43.0026 101.3759 0001352 275.6624 274.4792 15.27554835    13"
    ]
  },
  "63639": {
    "noradId": "63639",
    "tle": [
      "1 63639C 25083F   26115.37826389  .00031240  00000+0  11318-2 0  1151",
      "2 63639  43.0025 101.5554 0001496 273.8858 206.6530 15.27552974    15"
    ]
  },
  "63640": {
    "noradId": "63640",
    "tle": [
      "1 63640C 25083G   26115.36854167  .00009573  00000+0  34689-3 0  1158",
      "2 63640  42.9996 101.9799 0001297 278.7236 359.7253 15.27559917    16"
    ]
  },
  "63641": {
    "noradId": "63641",
    "tle": [
      "1 63641C 25083H   26115.36506944  .00007494  00000+0  27156-3 0  1157",
      "2 63641  43.0030 101.4737 0001330 273.2563 205.3789 15.27560662    15"
    ]
  },
  "63642": {
    "noradId": "63642",
    "tle": [
      "1 63642C 25083J   26115.40604167  .00061257  00000+0  22191-2 0  1159",
      "2 63642  43.0006 101.6450 0001431 274.6108 259.8028 15.27542136    11"
    ]
  },
  "63643": {
    "noradId": "63643",
    "tle": [
      "1 63643C 25083K   26115.39284722  .00015695  00000+0  56861-3 0  1156",
      "2 63643  43.0013 101.1967 0001296 273.0989  47.9892 15.27562452    15"
    ]
  },
  "63644": {
    "noradId": "63644",
    "tle": [
      "1 63644C 25083L   26115.39840278  .00038001  00000+0  13761-2 0  1158",
      "2 63644  43.0009 101.6700 0001356 277.7443 221.6390 15.27565468    18"
    ]
  },
  "63645": {
    "noradId": "63645",
    "tle": [
      "1 63645C 25083M   26115.40326389  .00043605  00000+0  15798-2 0  1151",
      "2 63645  43.0023 101.4646 0001448 275.6924 321.2731 15.27547630    12"
    ]
  },
  "63646": {
    "noradId": "63646",
    "tle": [
      "1 63646C 25083N   26115.39076389  .00039672  00000+0  14376-2 0  1152",
      "2 63646  43.0036 101.3513 0001344 279.0141 326.9230 15.27543385    12"
    ]
  },
  "63647": {
    "noradId": "63647",
    "tle": [
      "1 63647C 25083P   26115.40395833  .00016825  00000+0  60997-3 0  1159",
      "2 63647  42.9998 101.7243 0001561 279.3937 215.3259 15.27539615    12"
    ]
  },
  "63648": {
    "noradId": "63648",
    "tle": [
      "1 63648C 25083Q   26115.41229167  .00038877  00000+0  14085-2 0  1154",
      "2 63648  43.0016 101.1187 0001385 272.5808 141.4238 15.27549688    10"
    ]
  },
  "63649": {
    "noradId": "63649",
    "tle": [
      "1 63649C 25083R   26115.40534722  .00066208  00000+0  23994-2 0  1158",
      "2 63649  43.0006 101.0549 0001385 274.0663 144.1588 15.27527393    14"
    ]
  },
  "63650": {
    "noradId": "63650",
    "tle": [
      "1 63650C 25083S   26115.38520833 -.00012955  00000+0 -46971-3 0  1158",
      "2 63650  43.0033 101.4535 0001356 280.3223 266.8593 15.27552379    15"
    ]
  },
  "63651": {
    "noradId": "63651",
    "tle": [
      "1 63651C 25083T   26115.40465278  .00032144  00000+0  11642-2 0  1159",
      "2 63651  43.0033 101.2874 0001409 273.9340  41.3797 15.27564956    13"
    ]
  },
  "63652": {
    "noradId": "63652",
    "tle": [
      "1 63652C 25083U   26115.41020833  .00044537  00000+0  16136-2 0  1157",
      "2 63652  43.0022 101.1554 0001058 281.2313 107.1642 15.27546879    12"
    ]
  },
  "63653": {
    "noradId": "63653",
    "tle": [
      "1 63653C 25083V   26115.37409722  .00020917  00000+0  75771-3 0  1158",
      "2 63653  43.0011 101.7676 0001314 273.2303 106.5268 15.27563275    13"
    ]
  },
  "63654": {
    "noradId": "63654",
    "tle": [
      "1 63654C 25083W   26115.39701389  .00038346  00000+0  13892-2 0  1155",
      "2 63654  43.0014 101.6028 0001408 275.1742 244.9148 15.27552209    18"
    ]
  },
  "63655": {
    "noradId": "63655",
    "tle": [
      "1 63655C 25083X   26115.39284722  .00041387  00000+0  14996-2 0  1158",
      "2 63655  43.0015 101.6448 0001423 274.7301 215.3523 15.27546902    11"
    ]
  }
}